{
  "norad_id": 57923,
  "name": "STARLINK-30440",
  "history": [
    {
      "epoch": "2026-05-05T09:08:34.119744Z",
      "apogee_km": 483.67143403802584,
      "perigee_km": 482.4446523643019,
      "latitude_deg": -1.0950027408083502e-05,
      "longitude_deg": 5.0339681941683425,
      "height_km": 482.54605701647677,
      "semi_major_axis_km": 6861.195043201164,
      "eccentricity": 8.94e-05,
      "inclination_deg": 43.0022,
      "raan_deg": 5.4329,
      "arg_perigee_deg": 298.0502,
      "mean_anomaly_deg": 62.0259,
      "mean_motion_rev_day": 15.27577012
    },
    {
      "epoch": "2026-05-06T16:31:42.174048Z",
      "apogee_km": 483.6215505955197,
      "perigee_km": 482.49631446258536,
      "latitude_deg": -1.6698288852486728e-05,
      "longitude_deg": -114.42416213249614,
      "height_km": 482.66240101996317,
      "semi_major_axis_km": 6861.195932529053,
      "eccentricity": 8.2e-05,
      "inclination_deg": 43.0051,
      "raan_deg": 358.0473,
      "arg_perigee_deg": 287.939,
      "mean_anomaly_deg": 72.1372,
      "mean_motion_rev_day": 15.27576715
    },
    {
      "epoch": "2026-05-07T16:04:04.414656Z",
      "apogee_km": 484.83988816888814,
      "perigee_km": 481.74126747474384,
      "latitude_deg": 4.349127888476627e-05,
      "longitude_deg": -114.02290403610456,
      "height_km": 483.3189429799249,
      "semi_major_axis_km": 6861.427577821816,
      "eccentricity": 0.0002258,
      "inclination_deg": 43.0064,
      "raan_deg": 352.5079,
      "arg_perigee_deg": 260.7012,
      "mean_anomaly_deg": 99.3585,
      "mean_motion_rev_day": 15.27499358
    },
    {
      "epoch": "2026-05-08T07:45:36.105120Z",
      "apogee_km": 484.0241040201554,
      "perigee_km": 482.08513126901016,
      "latitude_deg": 1.2115078621086793e-05,
      "longitude_deg": 6.256763721911557,
      "height_km": 482.9424985812619,
      "semi_major_axis_km": 6861.191617644583,
      "eccentricity": 0.0001413,
      "inclination_deg": 43.0041,
      "raan_deg": 348.8141,
      "arg_perigee_deg": 263.4413,
      "mean_anomaly_deg": 96.6278,
      "mean_motion_rev_day": 15.27578156
    },
    {
      "epoch": "2026-05-09T15:08:44.651904Z",
      "apogee_km": 483.75144043919136,
      "perigee_km": 482.3764557691911,
      "latitude_deg": 2.8823112586351834e-05,
      "longitude_deg": -113.20349841332603,
      "height_km": 482.91903185916044,
      "semi_major_axis_km": 6861.2009481041905,
      "eccentricity": 0.0001002,
      "inclination_deg": 43.0026,
      "raan_deg": 341.4284,
      "arg_perigee_deg": 263.4475,
      "mean_anomaly_deg": 96.6263,
      "mean_motion_rev_day": 15.2757504
    },
    {
      "epoch": "2026-05-10T06:50:16.238688Z",
      "apogee_km": 484.2462481779048,
      "perigee_km": 481.74728603724907,
      "latitude_deg": -2.5038929415523214e-06,
      "longitude_deg": 7.079903613966048,
      "height_km": 482.5979132850478,
      "semi_major_axis_km": 6861.133767107577,
      "eccentricity": 0.00018211,
      "inclination_deg": 43.0039,
      "raan_deg": 337.7379,
      "arg_perigee_deg": 278.1131,
      "mean_anomaly_deg": 81.9514,
      "mean_motion_rev_day": 15.27597476
    }
  ]
}